STARLINK-1822
1 26719C 20073BB  21325.14340238  .00005120  00000-0  34301-3 0  3252
2 26719  53.0556  67.5839 0000661 200.2637 206.6176 15.06398910    15
